FLIGHT  DEP  ARR  FL  CI ZFW   FUEL  TOW   BURN  PAX TOTAL ALT  ROUTE
TAM3000 SBSV SBAR 210 5  60888 5259  65947 00h30 180 02h13 SBSV 10 TIRK1A CONDE CONDE W33 ARU 11 // SBSV 10

SBSV 091600Z 10012KT 9999 FEW017 SCT070 28/22 Q1013
SBAR 091600Z 09014KT 9999 SCT020 27/21 Q1012
SBSV 091600Z 10012KT 9999 FEW017 SCT070 28/22 Q1013